[{"OBJECT_NAME":"STARLINK-5120","OBJECT_ID":"2022-125U","EPOCH":"2026-03-09T15:13:15.661920","MEAN_MOTION":15.08821028,"ECCENTRICITY":0.0001318,"INCLINATION":53.2185,"RA_OF_ASC_NODE":214.4071,"ARG_OF_PERICENTER":99.9911,"MEAN_ANOMALY":260.123,"EPHEMERIS_TYPE":0,"CLASSIFICATION_TYPE":"U","NORAD_CAT_ID":53982,"ELEMENT_SET_NO":999,"REV_AT_EPOCH":18944,"BSTAR":-0.00012468,"MEAN_MOTION_DOT":-2.27e-5,"MEAN_MOTION_DDOT":0},{"OBJECT_NAME":"MINOTAUR 4 R\/B","OBJECT_ID":"2020-046E","EPOCH":"2026-03-09T23:21:28.488960","MEAN_MOTION":15.06543892,"ECCENTRICITY":0.00095926,"INCLINATION":53.9792,"RA_OF_ASC_NODE":306.0413,"ARG_OF_PERICENTER":86.078,"MEAN_ANOMALY":274.1318,"EPHEMERIS_TYPE":0,"CLASSIFICATION_TYPE":"U","NORAD_CAT_ID":45877,"ELEMENT_SET_NO":999,"REV_AT_EPOCH":23396,"BSTAR":0.00016618262,"MEAN_MOTION_DOT":2.204e-5,"MEAN_MOTION_DDOT":0}]
